OBJECT_NAME,OBJECT_ID,EPOCH,MEAN_MOTION,ECCENTRICITY,INCLINATION,RA_OF_ASC_NODE,ARG_OF_PERICENTER,MEAN_ANOMALY,EPHEMERIS_TYPE,CLASSIFICATION_TYPE,NORAD_CAT_ID,ELEMENT_SET_NO,REV_AT_EPOCH,BSTAR,MEAN_MOTION_DOT,MEAN_MOTION_DDOT
IONOSFERA-M 2,2024-199B,2026-07-09T07:26:53.784672,14.22761681,.00003294,98.7144,63.1565,96.1399,263.9817,0,U,61736,999,13397,.32374224E-4,.29E-6,0
PRSC-EO1,2025-012A,2026-07-09T06:41:47.346144,15.17734096,.00064148,97.4218,262.3064,167.6488,192.4905,0,U,62725,999,8154,.26571479E-3,.5298E-4,0
BIOMASS,2025-090A,2026-07-08T22:08:42.383328,14.67536826,.00015042,98.0742,16.9197,91.2147,268.9230,0,U,63772,999,6387,.13543533E-3,.72E-5,0
GOSAT-GW (IBUKI GW),2025-141A,2026-07-09T06:44:33.484704,14.67553566,.00014328,98.0566,127.2390,84.6244,275.5124,0,U,64694,999,5508,.784049E-6,-.43E-6,0
IONOSFERA-M 3,2025-155A,2026-07-09T06:39:33.325920,14.21490185,.00021036,98.6036,151.6277,121.3619,238.7765,0,U,64876,999,4954,.33053375E-4,.29E-6,0
IONOSFERA-M 4,2025-155B,2026-07-09T07:29:40.376832,14.21492588,.00017197,98.6035,151.5788,105.6108,254.5259,0,U,64877,999,4954,.3012771E-4,.23E-6,0
MICROCARB,2025-156A,2026-07-09T03:56:58.047936,14.72880941,.00171437,98.0075,266.9513,189.9403,170.1468,0,U,64899,999,5120,.6604346E-4,.373E-5,0
CO3D 3,2025-156B,2026-07-09T05:43:06.789792,15.20206456,.00018435,97.4334,268.6142,100.0393,260.1050,0,U,64900,999,5288,.14499799E-3,.3073E-4,0
CO3D 4,2025-156C,2026-07-09T05:43:19.754112,15.20201491,.00012371,97.4334,268.6143,164.2657,195.8617,0,U,64901,999,5288,.57409265E-4,.1175E-4,0
CO3D 2,2025-156D,2026-07-09T06:30:05.068800,15.20191395,.00013316,97.4333,268.5453,88.3297,271.8090,0,U,64902,999,5288,.13107241E-3,.277E-4,0
CO3D 1,2025-156E,2026-07-09T06:30:18.532512,15.20194802,.00012632,97.4333,268.5454,97.7793,262.3586,0,U,64903,999,5288,.13568181E-3,.287E-4,0
PRSC-S1,2025-164A,2026-07-09T06:33:44.646624,15.06606036,.00057432,41.1289,163.4058,157.4971,202.6095,0,U,65055,999,5176,.16570961E-3,.2321E-4,0
SENTINEL-6B,2025-264A,2026-07-09T04:21:06.140448,12.80930087,.00078824,66.0415,89.4979,268.8305,91.1807,0,U,66514,999,2998,-.4200914E-4,-.71E-6,0
CAS500-3,2025-274F,2026-07-08T19:06:22.060224,14.88374289,.00066658,97.7440,117.3557,55.1765,305.0078,0,U,66655,999,3336,.10657486E-3,.933E-5,0
CSG-3,2026-001A,2026-07-09T06:35:58.442208,14.82149443,.00015035,97.8893,13.5573,92.0789,268.0596,0,U,67304,999,2773,.33800002E-4,.217E-5,0
PRSC-E03,2026-092A,2026-07-09T06:10:12.806688,15.06791687,.00044036,38.0024,319.5288,214.2594,145.7884,0,U,68835,999,1128,.13090246E-3,.1877E-4,0
CAS500-2,2026-100AK,2026-07-09T06:15:59.755392,15.20858207,.00081731,97.3876,87.7001,316.7866,43.2728,0,U,69013,999,1016,.22146608E-3,.4826E-4,0
