IONOSFERA-M 2           
1 61736U 24199B   26190.31034473  .00000029  00000+0  32374-4 0  9994
2 61736  98.7144  63.1565 0000329  96.1399 263.9817 14.22761681133972
PRSC-EO1                
1 62725U 25012A   26190.27902021  .00005298  00000+0  26571-3 0  9990
2 62725  97.4218 262.3064 0006414 167.6488 192.4905 15.17734096 81544
BIOMASS                 
1 63772U 25090A   26189.92271277  .00000720  00000+0  13544-3 0  9992
2 63772  98.0742  16.9197 0001504  91.2147 268.9230 14.67536826 63876
GOSAT-GW (IBUKI GW)     
1 64694U 25141A   26190.28094311 -.00000043  00000+0  78405-6 0  9995
2 64694  98.0566 127.2390 0001432  84.6244 275.5124 14.67553566 55089
IONOSFERA-M 3           
1 64876U 25155A   26190.27746905  .00000029  00000+0  33053-4 0  9995
2 64876  98.6036 151.6277 0002103 121.3619 238.7765 14.21490185 49548
IONOSFERA-M 4           
1 64877U 25155B   26190.31227288  .00000023  00000+0  30128-4 0  9993
2 64877  98.6035 151.5788 0001719 105.6108 254.5259 14.21492588 49547
MICROCARB               
1 64899U 25156A   26190.16456074  .00000373  00000+0  66043-4 0  9991
2 64899  98.0075 266.9513 0017143 189.9403 170.1468 14.72880941 51208
CO3D 3                  
1 64900U 25156B   26190.23827303  .00003073  00000+0  14500-3 0  9999
2 64900  97.4334 268.6142 0001843 100.0393 260.1050 15.20206456 52880
CO3D 4                  
1 64901U 25156C   26190.23842308  .00001175  00000+0  57409-4 0  9999
2 64901  97.4334 268.6143 0001237 164.2657 195.8617 15.20201491 52881
CO3D 2                  
1 64902U 25156D   26190.27089200  .00002770  00000+0  13107-3 0  9996
2 64902  97.4333 268.5453 0001331  88.3297 271.8090 15.20191395 52886
CO3D 1                  
1 64903U 25156E   26190.27104783  .00002870  00000+0  13568-3 0  9993
2 64903  97.4333 268.5454 0001263  97.7793 262.3586 15.20194802 52888
PRSC-S1                 
1 65055U 25164A   26190.27343341  .00002321  00000+0  16571-3 0  9994
2 65055  41.1289 163.4058 0005743 157.4971 202.6095 15.06606036 51764
SENTINEL-6B             
1 66514U 25264A   26190.18132107 -.00000071  00000+0 -42009-4 0  9990
2 66514  66.0415  89.4979 0007882 268.8305  91.1807 12.80930087 29981
CAS500-3                
1 66655U 25274F   26189.79608866  .00000933  00000+0  10657-3 0  9990
2 66655  97.7440 117.3557 0006665  55.1765 305.0078 14.88374289 33364
CSG-3                   
1 67304U 26001A   26190.27498197  .00000217  00000+0  33800-4 0  9991
2 67304  97.8893  13.5573 0001503  92.0789 268.0596 14.82149443 27739
PRSC-E03                
1 68835U 26092A   26190.25709267  .00001877  00000+0  13090-3 0  9993
2 68835  38.0024 319.5288 0004403 214.2594 145.7884 15.06791687 11282
CAS500-2                
1 69013U 26100AK  26190.26110828  .00004826  00000+0  22147-3 0  9992
2 69013  97.3876  87.7001 0008173 316.7866  43.2728 15.20858207 10162
